OPS 6582 (TRANSIT 5B-5) 
1 00965U 64083D   21304.44761170  .00000022  00000-0  17080-4 0  9995
2 00965  90.0272 194.7841 0040847 175.8257 357.8067 13.56762577814462
OSCAR 7 (AO-7)          
1 07530U 74089B   21304.22099473 -.00000023  00000-0  14058-3 0  9996
2 07530 101.8738 278.6644 0012396 120.3145 252.4398 12.53651097148745
UOSAT 2 (UO-11)         
1 14781U 84021B   21304.72670848  .00000455  00000-0  61594-4 0  9991
2 14781  97.6015 297.9176 0008433   4.1506 355.9777 14.83353176 27133
NOAA 9                  
1 15427U 84123A   21304.70160164  .00000060  00000-0  53565-4 0  9996
2 15427  99.0127 268.9132 0015815  93.5398  79.4470 14.16149802904467
LUSAT (LO-19)           
1 20442U 90005G   21304.57352836  .00000071  00000-0  42678-4 0  9994
2 20442  98.7597 261.3869 0012679 118.3842 241.8621 14.33003735660326
ITAMSAT (IO-26)         
1 22826U 93061D   21304.32589678  .00000050  00000-0  36984-4 0  9996
2 22826  98.9057 325.1338 0008762 353.1494   6.9566 14.30470199465653
RADIO ROSTO (RS-15)     
1 23439U 94085A   21304.57634696 -.00000037  00000-0  15882-3 0  9991
2 23439  64.8146 155.8017 0164586 311.7159  46.9785 11.27570137105689
JAS-2 (FO-29)           
1 24278U 96046B   21304.43168533 -.00000001  00000-0  33347-4 0  9997
2 24278  98.5505 354.2939 0350793 157.1590 204.5594 13.53107336244637
NOAA 15                 
1 25338U 98030A   21304.76410651  .00000084  00000-0  53505-4 0  9995
2 25338  98.6711 331.9984 0009474 240.8500 119.1732 14.26066672220676
TECHSAT 1B (GO-32)      
1 25397U 98043D   21304.11363202  .00000031  00000-0  33167-4 0  9996
2 25397  98.7857 249.3737 0002247  67.4151 292.7264 14.23719891210792
ISS (ZARYA)             
1 25544U 98067A   21304.77661963  .00005729  00000-0  11259-3 0  9999
2 25544  51.6461  27.3371 0003836 158.6921 349.0215 15.48863138309766
ORSTED                  
1 25635U 99008B   21304.54311813  .00000202  00000-0  55461-4 0  9992
2 25635  96.4796 217.6250 0138097 191.0220 168.7946 14.48332870197413
PHASE 3D (AO-40)        
1 26609U 00072B   21304.26540278 -.00000266  00000-0  00000-0 0  9991
2 26609   8.8729 305.6908 7966818 304.4227   4.0913  1.25588422 96275
PCSAT (NO-44)           
1 26931U 01043C   21304.43262927  .00000047  00000-0  49735-4 0  9997
2 26931  67.0503 289.4978 0005714 275.2747  84.7703 14.30640124 48648
SAUDISAT 1C (SO-50)     
1 27607U 02058C   21304.43899325  .00000537  00000-0  96543-4 0  9996
2 27607  64.5545 282.4849 0057629 342.5093  17.4023 14.75816091 14571
CUTE-1 (CO-55)          
1 27844U 03031E   21304.24606632  .00000170  00000-0  95959-4 0  9990
2 27844  98.6818 310.4079 0010679  50.0470 310.1644 14.22344880951280
CUBESAT XI-IV (CO-57)   
1 27848U 03031J   21304.27982254  .00000141  00000-0  83443-4 0  9997
2 27848  98.6871 310.9957 0010710  62.5100 297.7165 14.21917333951115
MOZHAYETS 4 (RS-22)     
1 27939U 03042A   21304.86290326  .00000378  00000-0  76099-4 0  9998
2 27939  98.1610  81.1658 0012395 204.2472 155.8150 14.67049227967523
INMARSAT 4-F1           
1 28628U 05009A   21304.60882903 -.00000252  00000-0  00000-0 0  9996
2 28628   3.4521  32.5252 0002837 192.7552 177.5538  1.00271726 60731
NOAA 18                 
1 28654U 05018A   21304.72123285  .00000119  00000-0  88668-4 0  9990
2 28654  98.9797  10.0313 0013370 256.3100 103.6583 14.12652139847778
CUBESAT XI-V            
1 28895U 05043F   21304.30408800  .00000534  00000-0  11077-3 0  9998
2 28895  98.0780  74.7278 0017618 139.7212 220.5300 14.63991758854113
METOP-A                 
1 29499U 06044A   21304.86979167  .00000058  00000-0  45596-4 0  9996
2 29499  98.4579 338.5984 0000671 114.9924 245.1677 14.21515905780113
CARTOSAT-2 (IRS-P7)     
1 29710U 07001B   21304.28190448  .00015481  00000-0  45345-3 0  9996
2 29710  97.8696  32.9699 0167747 136.1113 225.3591 15.22456278801303
FALCONSAT-3             
1 30776U 07006E   21304.43316062  .00016871  00000-0  37781-3 0  9993
2 30776  35.4344 305.3187 0000937  93.4072 266.6763 15.42588262814102
CAPE-1                  
1 31130U 07012P   21304.53571495  .00000539  00000-0  12440-3 0  9998
2 31130  98.2443 242.0849 0094491 282.9093  76.1564 14.56765901771760
CARTOSAT-2A             
1 32783U 08021A   21304.82934336  .00000260  00000-0  42570-4 0  9992
2 32783  97.9901   2.0497 0012681 178.9638 181.1576 14.78639055729232
CUTE-1.7+APD II (CO-65) 
1 32785U 08021C   21304.63500739  .00001073  00000-0  12001-3 0  9997
2 32785  97.6282 278.3164 0011380 272.8628  87.1287 14.88866048732503
COMPASS-1               
1 32787U 08021E   21304.20026364  .00001939  00000-0  18498-3 0  9996
2 32787  97.5420 289.6735 0011767 187.4811 172.6236 14.94393866733809
AAUSAT-II               
1 32788U 08021F   21304.22793199  .00001956  00000-0  17964-3 0  9992
2 32788  97.5155 293.2858 0011717 166.8208 193.3322 14.95883238734151
DELFI-C3 (DO-64)        
1 32789U 08021G   21304.52351464  .00006381  00000-0  39878-3 0  9996
2 32789  97.3652 334.6214 0012388  41.4256 318.7910 15.09722058737353
SEEDS II (CO-66)        
1 32791U 08021J   21304.21613149  .00001646  00000-0  16920-3 0  9998
2 32791  97.5864 283.6817 0011794 230.2274 129.7907 14.91611647733097
YUBILEINY (RS-30)       
1 32953U 08025A   21304.88812256  .00000021  00000-0  80971-4 0  9999
2 32953  82.5037 326.0858 0020313  42.3960 317.8685 12.43105345609937
FENGYUN 3A              
1 32958U 08026A   21304.67706944  .00000048  00000-0  43298-4 0  9998
2 32958  98.4693 272.0948 0008237 332.0706  28.0027 14.18673512695895
PRISM (HITOMI)          
1 33493U 09002B   21304.74412859  .00003598  00000-0  30949-3 0  9996
2 33493  98.2071 274.0016 0014136 187.6486 172.4522 14.98025241694734
STARS (KUKAI)           
1 33498U 09002G   21304.48056601  .00000794  00000-0  11359-3 0  9990
2 33498  98.1925 187.3206 0009558 269.9698  90.0417 14.79464119687576
KKS-1 (KISEKI)          
1 33499U 09002H   21304.55749231  .00000411  00000-0  68002-4 0  9991
2 33499  98.2461 177.4051 0008524 334.5482  25.5306 14.75724721686486
NOAA 19                 
1 33591U 09005A   21304.76855210  .00000104  00000-0  81273-4 0  9999
2 33591  99.1753 328.8021 0014828 109.1995 251.0782 14.12504627656169
SWISSCUBE               
1 35932U 09051B   21304.30179999  .00000407  00000-0  10233-3 0  9997
2 35932  98.5904 148.5371 0008282  37.3576 322.8195 14.56604029642738
BEESAT-1                
1 35933U 09051C   21304.81198531  .00000340  00000-0  87066-4 0  9992
2 35933  98.5856 150.8249 0006621  49.0287 311.1482 14.56653449642964
ITUPSAT1                
1 35935U 09051E   21304.82884699  .00000314  00000-0  82770-4 0  9990
2 35935  98.5958 150.9520 0008952  49.0180 311.1790 14.55780484642649
XIWANG-1 (HOPE-1)       
1 36122U 09072B   21304.72841080  .00000004  00000-0  12191-3 0  9993
2 36122 100.1510 279.8398 0007798 143.6983 216.4661 13.16363567570824
CARTOSAT-2B             
1 36795U 10035A   21304.79984331  .00000190  00000-0  33077-4 0  9997
2 36795  97.9841   2.2515 0012308 263.0577  96.9231 14.78651077610271
TISAT 1                 
1 36799U 10035E   21304.34054373  .00001385  00000-0  14273-3 0  9999
2 36799  98.1995 140.6583 0013038 124.4323 235.8129 14.91939924613593
FENGYUN 3B              
1 37214U 10059A   21304.83557143  .00000007  00000-0  27272-4 0  9999
2 37214  99.0886 301.6127 0016052 289.7139  70.2307 14.16004144568634
JUGNU                   
1 37839U 11058B   21304.84206334  .00000356  00000-0  47733-4 0  9997
2 37839  19.9600 122.0223 0018898 156.1822 233.5845 14.12731615519880
SRMSAT                  
1 37841U 11058D   21304.39163391  .00000350  00000-0  47375-4 0  9991
2 37841  19.9709 199.4548 0011761 347.7420 168.3617 14.10709451518854
M-CUBED & EXP-1 PRIME   
1 37855U 11061F   21304.83301273  .00009972  00000-0  47221-3 0  9990
2 37855 101.7238 299.1235 0164449  24.9096 335.9942 15.08517632547202
HORYU-2                 
1 38340U 12025D   21304.46534226  .00000740  00000-0  11489-3 0  9997
2 38340  98.2197  14.2715 0010447 236.6562 123.3647 14.76146211498451
METOP-B                 
1 38771U 12049A   21304.80549031  .00000042  00000-0  39086-4 0  9998
2 38771  98.6992   3.0504 0001115  38.6600  78.3942 14.21490640473248
SARAL                   
1 39086U 13009A   21304.56587097  .00000037  00000-0  30083-4 0  9994
2 39086  98.5461 128.5962 0000876 141.3528 218.7718 14.32065394453721
AAUSAT 3                
1 39087U 13009B   21304.81112401  .00000171  00000-0  73534-4 0  9993
2 39087  98.4130 144.9556 0011887 226.4946 133.5243 14.35989427454765
STRAND-1                
1 39090U 13009E   21304.28655224  .00000230  00000-0  95229-4 0  9994
2 39090  98.4165 143.2249 0008199 230.1761 129.8704 14.35196357454523
BRITE-AUSTRIA           
1 39091U 13009F   21304.82725517  .00000072  00000-0  40025-4 0  9996
2 39091  98.4171 142.8983 0009498 236.1622 123.8660 14.35207716454646
UNIBRITE                
1 39092U 13009G   21304.34036400  .00000077  00000-0  42081-4 0  9999
2 39092  98.4203 142.1480 0008433 231.8241 128.2186 14.35078764454523
SOMP                    
1 39134U 13015E   21304.70078644  .00009151  00000-0  38729-3 0  9994
2 39134  64.8629  89.1298 0022132 312.5748  47.3513 15.23496255472349
BEESAT-3                
1 39135U 13015F   21304.53483409  .00006203  00000-0  29357-3 0  9997
2 39135  64.8662 121.1595 0019933 325.4870  34.4961 15.20081694471288
BEESAT-2                
1 39136U 13015G   21304.26334174  .00005911  00000-0  28653-3 0  9995
2 39136  64.8741 129.0124 0014622 244.3312 115.6305 15.19375532471067
NEE-01 PEGASO           
1 39151U 13018B   21304.55273016  .00000706  00000-0  99255-4 0  9998
2 39151  97.9853  46.2616 0015615 277.6112  82.3326 14.80447930459812
CUBEBUG-1 (CAPITAN BETO)
1 39153U 13018D   21304.51621238  .00000865  00000-0  11829-3 0  9995
2 39153  98.0024  49.8713 0015493 272.4039  87.5399 14.81046616459946
